STARLINK-37608          
1 69037U 26101N   26132.83335648 -.01947204  00000+0 -80196-2 0  9993
2 69037  97.2888 346.9481 0001311  95.9635 250.0057 15.89138655  2289
