{
  "norad_id": 69037,
  "name": "STARLINK-37608",
  "history": [
    {
      "epoch": "2026-05-12T20:00:01.999008Z",
      "apogee_km": 305.57270889265055,
      "perigee_km": 303.8204699255075,
      "latitude_deg": -14.141254142136951,
      "longitude_deg": 178.17383197617272,
      "height_km": 311.07316477262077,
      "semi_major_axis_km": 6682.833589409079,
      "eccentricity": 0.0001311,
      "inclination_deg": 97.2888,
      "raan_deg": 346.9481,
      "arg_perigee_deg": 95.9635,
      "mean_anomaly_deg": 250.0057,
      "mean_motion_rev_day": 15.89138655
    }
  ]
}